{
  "type": "FeatureCollection",
  "features": [
    {
      "type": "Feature",
      "properties": {
        "norad_id": 34641,
        "name": "COSMOS 2251 DEB",
        "group": "cosmos-2251-debris",
        "lat": 68.61841737070681,
        "lon": -168.39217800072166,
        "alt_km": 720.9109729942875,
        "timestamp": "2025-12-24T09:46:31.399825+00:00",
        "meta_object_name": "COSMOS 2251 DEB",
        "meta_object_id": "1993-036XN",
        "meta_epoch": "2025-12-23T22:32:56.853024",
        "meta_mean_motion": 14.52074303,
        "meta_eccentricity": 0.0019071,
        "meta_inclination": 73.8374,
        "meta_ra_of_asc_node": 60.292,
        "meta_arg_of_pericenter": 332.9719,
        "meta_mean_anomaly": 206.7936,
        "meta_ephemeris_type": 0,
        "meta_classification_type": "U",
        "meta_norad_cat_id": 34641,
        "meta_element_set_no": 999,
        "meta_rev_at_epoch": 88418,
        "meta_bstar": 0.00077881,
        "meta_mean_motion_dot": 3.13e-05,
        "meta_mean_motion_ddot": 0,
        "tle_line1": "1 34641U 93036XN  25357.93954691  .00003130  00000+0  77881-3 0  9997",
        "tle_line2": "2 34641  73.8374  60.2920 0019071 332.9719 206.7936 14.52074303884184"
      },
      "geometry": {
        "type": "Point",
        "coordinates": [
          -168.39217800072166,
          68.61841737070681
        ]
      }
    },
    {
      "type": "Feature",
      "properties": {
        "norad_id": 34642,
        "name": "COSMOS 2251 DEB",
        "group": "cosmos-2251-debris",
        "lat": 55.59640108480356,
        "lon": 114.82895503429292,
        "alt_km": 746.7970430987889,
        "timestamp": "2025-12-24T09:46:31.399836+00:00",
        "meta_object_name": "COSMOS 2251 DEB",
        "meta_object_id": "1993-036XP",
        "meta_epoch": "2025-12-22T21:18:46.794240",
        "meta_mean_motion": 13.99000221,
        "meta_eccentricity": 0.02065395,
        "meta_inclination": 74.0044,
        "meta_ra_of_asc_node": 322.2225,
        "meta_arg_of_pericenter": 139.6532,
        "meta_mean_anomaly": 253.1213,
        "meta_ephemeris_type": 0,
        "meta_classification_type": "U",
        "meta_norad_cat_id": 34642,
        "meta_element_set_no": 999,
        "meta_rev_at_epoch": 85435,
        "meta_bstar": 0.00078596345,
        "meta_mean_motion_dot": 1.341e-05,
        "meta_mean_motion_ddot": 0,
        "tle_line1": "1 34642U 93036XP  25356.88804160  .00001341  00000+0  78596-3 0  9992",
        "tle_line2": "2 34642  74.0044 322.2225 0206539 139.6532 253.1213 13.99000221854351"
      },
      "geometry": {
        "type": "Point",
        "coordinates": [
          114.82895503429292,
          55.59640108480356
        ]
      }
    },
    {
      "type": "Feature",
      "properties": {
        "norad_id": 34671,
        "name": "COSMOS 2251 DEB",
        "group": "cosmos-2251-debris",
        "lat": 59.255922250604144,
        "lon": -97.01567423958622,
        "alt_km": 662.3251506524039,
        "timestamp": "2025-12-24T09:46:31.399847+00:00",
        "meta_object_name": "COSMOS 2251 DEB",
        "meta_object_id": "1993-036XR",
        "meta_epoch": "2025-12-23T01:02:34.173312",
        "meta_mean_motion": 14.67102739,
        "meta_eccentricity": 0.00106686,
        "meta_inclination": 74.0274,
        "meta_ra_of_asc_node": 114.4027,
        "meta_arg_of_pericenter": 195.4789,
        "meta_mean_anomaly": 280.8159,
        "meta_ephemeris_type": 0,
        "meta_classification_type": "U",
        "meta_norad_cat_id": 34671,
        "meta_element_set_no": 999,
        "meta_rev_at_epoch": 88448,
        "meta_bstar": 0.0017957882,
        "meta_mean_motion_dot": 0.0001008,
        "meta_mean_motion_ddot": 0,
        "tle_line1": "1 34671U 93036XR  25357.04345108  .00010080  00000+0  17958-2 0  9999",
        "tle_line2": "2 34671  74.0274 114.4027 0010668 195.4789 280.8159 14.67102739884485"
      },
      "geometry": {
        "type": "Point",
        "coordinates": [
          -97.01567423958622,
          59.255922250604144
        ]
      }
    },
    {
      "type": "Feature",
      "properties": {
        "norad_id": 34672,
        "name": "COSMOS 2251 DEB",
        "group": "cosmos-2251-debris",
        "lat": 73.94655693906856,
        "lon": 19.95207250404089,
        "alt_km": 765.2862587997679,
        "timestamp": "2025-12-24T09:46:31.399857+00:00",
        "meta_object_name": "COSMOS 2251 DEB",
        "meta_object_id": "1993-036XS",
        "meta_epoch": "2025-12-23T01:39:52.431840",
        "meta_mean_motion": 14.36424251,
        "meta_eccentricity": 0.00243004,
        "meta_inclination": 74.0343,
        "meta_ra_of_asc_node": 286.6106,
        "meta_arg_of_pericenter": 356.389,
        "meta_mean_anomaly": 18.9966,
        "meta_ephemeris_type": 0,
        "meta_classification_type": "U",
        "meta_norad_cat_id": 34672,
        "meta_element_set_no": 999,
        "meta_rev_at_epoch": 65326,
        "meta_bstar": 0.00025150328,
        "meta_mean_motion_dot": 7.13e-06,
        "meta_mean_motion_ddot": 0,
        "tle_line1": "1 34672U 93036XS  25357.06935685  .00000713  00000+0  25150-3 0  9993",
        "tle_line2": "2 34672  74.0343 286.6106 0024300 356.3890  18.9966 14.36424251653260"
      },
      "geometry": {
        "type": "Point",
        "coordinates": [
          19.95207250404089,
          73.94655693906856
        ]
      }
    },
    {
      "type": "Feature",
      "properties": {
        "norad_id": 34678,
        "name": "COSMOS 2251 DEB",
        "group": "cosmos-2251-debris",
        "lat": 7.195505243775134,
        "lon": -13.448868154640861,
        "alt_km": 776.7052653875671,
        "timestamp": "2025-12-24T09:46:31.399868+00:00",
        "meta_object_name": "COSMOS 2251 DEB",
        "meta_object_id": "1993-036XY",
        "meta_epoch": "2025-12-23T18:55:51.698784",
        "meta_mean_motion": 14.30066893,
        "meta_eccentricity": 0.00247659,
        "meta_inclination": 74.0377,
        "meta_ra_of_asc_node": 345.6043,
        "meta_arg_of_pericenter": 31.3096,
        "meta_mean_anomaly": 33.4063,
        "meta_ephemeris_type": 0,
        "meta_classification_type": "U",
        "meta_norad_cat_id": 34678,
        "meta_element_set_no": 999,
        "meta_rev_at_epoch": 87537,
        "meta_bstar": 2.975852e-05,
        "meta_mean_motion_dot": 5.1e-07,
        "meta_mean_motion_ddot": 0,
        "tle_line1": "1 34678U 93036XY  25357.78879281  .00000051  00000+0  29759-4 0  9992",
        "tle_line2": "2 34678  74.0377 345.6043 0024765  31.3096  33.4063 14.30066893875378"
      },
      "geometry": {
        "type": "Point",
        "coordinates": [
          -13.448868154640861,
          7.195505243775134
        ]
      }
    },
    {
      "type": "Feature",
      "properties": {
        "norad_id": 34680,
        "name": "COSMOS 2251 DEB",
        "group": "cosmos-2251-debris",
        "lat": 43.291723494184964,
        "lon": -88.05581670242884,
        "alt_km": 685.6371619718147,
        "timestamp": "2025-12-24T09:46:31.399878+00:00",
        "meta_object_name": "COSMOS 2251 DEB",
        "meta_object_id": "1993-036YA",
        "meta_epoch": "2025-12-23T15:21:33.153120",
        "meta_mean_motion": 14.60731514,
        "meta_eccentricity": 0.00063275,
        "meta_inclination": 74.0441,
        "meta_ra_of_asc_node": 109.0451,
        "meta_arg_of_pericenter": 210.5791,
        "meta_mean_anomaly": 210.4022,
        "meta_ephemeris_type": 0,
        "meta_classification_type": "U",
        "meta_norad_cat_id": 34680,
        "meta_element_set_no": 999,
        "meta_rev_at_epoch": 88487,
        "meta_bstar": 0.0011410093,
        "meta_mean_motion_dot": 5.54e-05,
        "meta_mean_motion_ddot": 0,
        "tle_line1": "1 34680U 93036YA  25357.63996705  .00005540  00000+0  11410-2 0  9991",
        "tle_line2": "2 34680  74.0441 109.0451 0006327 210.5791 210.4022 14.60731514884874"
      },
      "geometry": {
        "type": "Point",
        "coordinates": [
          -88.05581670242884,
          43.291723494184964
        ]
      }
    },
    {
      "type": "Feature",
      "properties": {
        "norad_id": 34681,
        "name": "COSMOS 2251 DEB",
        "group": "cosmos-2251-debris",
        "lat": -50.88217151287674,
        "lon": 107.90483568597355,
        "alt_km": 624.4998789440688,
        "timestamp": "2025-12-24T09:46:31.399888+00:00",
        "meta_object_name": "COSMOS 2251 DEB",
        "meta_object_id": "1993-036YB",
        "meta_epoch": "2025-12-23T05:54:51.560640",
        "meta_mean_motion": 14.83443446,
        "meta_eccentricity": 0.00257018,
        "meta_inclination": 74.0625,
        "meta_ra_of_asc_node": 269.6261,
        "meta_arg_of_pericenter": 324.9574,
        "meta_mean_anomaly": 192.0619,
        "meta_ephemeris_type": 0,
        "meta_classification_type": "U",
        "meta_norad_cat_id": 34681,
        "meta_element_set_no": 999,
        "meta_rev_at_epoch": 89426,
        "meta_bstar": 0.0013897227,
        "meta_mean_motion_dot": 0.00011467,
        "meta_mean_motion_ddot": 0,
        "tle_line1": "1 34681U 93036YB  25357.24643010  .00011467  00000+0  13897-2 0  9993",
        "tle_line2": "2 34681  74.0625 269.6261 0025701 324.9574 192.0619 14.83443446894267"
      },
      "geometry": {
        "type": "Point",
        "coordinates": [
          107.90483568597355,
          -50.88217151287674
        ]
      }
    }
  ]
}